[{"OBJECT_NAME":"TRANSPORTER-10 OBJECT AD","OBJECT_ID":"2024-043AD","EPOCH":"2026-03-09T20:38:52.416960","MEAN_MOTION":15.34189901,"ECCENTRICITY":0.00089841,"INCLINATION":97.547,"RA_OF_ASC_NODE":207.3753,"ARG_OF_PERICENTER":221.4908,"MEAN_ANOMALY":138.5653,"EPHEMERIS_TYPE":0,"CLASSIFICATION_TYPE":"U","NORAD_CAT_ID":59125,"ELEMENT_SET_NO":999,"REV_AT_EPOCH":11202,"BSTAR":0.00036310552,"MEAN_MOTION_DOT":0.00011954,"MEAN_MOTION_DDOT":0},{"OBJECT_NAME":"STARLINK-32184","OBJECT_ID":"2024-155U","EPOCH":"2026-03-09T11:00:31.565952","MEAN_MOTION":15.30171337,"ECCENTRICITY":9.928e-5,"INCLINATION":53.1599,"RA_OF_ASC_NODE":130.8751,"ARG_OF_PERICENTER":67.7239,"MEAN_ANOMALY":292.3867,"EPHEMERIS_TYPE":0,"CLASSIFICATION_TYPE":"U","NORAD_CAT_ID":60942,"ELEMENT_SET_NO":999,"REV_AT_EPOCH":8625,"BSTAR":-8.6684089e-5,"MEAN_MOTION_DOT":-2.923e-5,"MEAN_MOTION_DDOT":0}]
